CSS (TIANHE)            
1 48274U 21035A   23212.43306701  .00012987  00000+0  15666-3 0  9993
2 48274  41.4744 247.0386 0007468  38.8300  97.8696 15.60519695128742
